STARLINK-1082
1 14938C 20001AA  21326.16718686  .00003016  00000-0  20210-3 0  3260
2 14938  53.0521 167.9929 0001911  82.2759 162.1039 15.06395456    11
